QIANFAN-81              
1 63167U 25046J   25360.85725742  .00000192  00000+0  27790-3 0  9995
2 63167  88.9776 318.4112 0016748  79.6387 280.6651 13.51006940 49398
QIANFAN-82              
1 63168U 25046K   25360.81752551  .00000199  00000+0  28860-3 0  9996
2 63168  88.9776 318.4593 0014850  86.5229 273.7621 13.50979992 49379
QIANFAN-83              
1 63169U 25046L   25360.73106159  .00000225  00000+0  27637-3 0  9996
2 63169  88.9776 318.2171 0016203  73.4234 286.8701 13.61979354 49508
QIANFAN-84              
1 63170U 25046M   25360.77115549  .00000187  00000+0  27099-3 0  9994
2 63170  88.9775 318.5967 0017834  83.7795 276.5387 13.50990221 49298
QIANFAN-85              
1 63171U 25046N   25360.76801606  .00000210  00000+0  30622-3 0  9993
2 63171  88.9775 318.4687 0015206  85.6342 274.6546 13.50980861 49360
QIANFAN-86              
1 63172U 25046P   25360.77634663  .00000189  00000+0  27349-3 0  9999
2 63172  88.9778 318.3303 0013067  89.0289 271.2359 13.50980493 49444
QIANFAN-87              
1 63173U 25046Q   25360.82176315  .00000185  00000+0  26812-3 0  9991
2 63173  88.9773 318.4368 0013749  85.0033 275.2687 13.50978078 49389
QIANFAN-88              
1 63174U 25046R   25360.83802654  .00000183  00000+0  26476-3 0  9999
2 63174  88.9776 318.3899 0014088  91.9087 268.3678 13.50984682 49418
